NORAD_CAT_ID,OBJECT_NAME,OBJECT_TYPE,EPOCH,MEAN_MOTION,ECCENTRICITY,INCLINATION,RA_OF_ASC_NODE,ARG_OF_PERICENTER,MEAN_ANOMALY,BSTAR,MEAN_MOTION_DOT,MEAN_MOTION_DDOT,TLE_LINE0,TLE_LINE1,TLE_LINE2,SEMIMAJOR_AXIS,PERIOD,APOGEE,PERIGEE,DECAYED
56452.0,STARLINK-5986,PAYLOAD,2024-02-23 14:09:01,14.98320355,0.0003005,69.9993,223.2632,268.0337,92.0478,-2.9609e-05,-4.46e-06,0.0,0 STARLINK-5986,1 56452U 23064E   24054.58960520 -.00000446  00000-0 -29609-4 0  9993,2 56452  69.9993 223.2632 0003005 268.0337  92.0478 14.98320355 43632,6950.223,96.108,574.176,569.999,0.0
56452.0,STARLINK-5986,PAYLOAD,2024-02-23 20:33:34,14.98319379,0.0003025,69.9994,222.59,268.1652,91.916,-3.9346e-05,-5.62e-06,0.0,0 STARLINK-5986,1 56452U 23064E   24054.85664759 -.00000562  00000-0 -39346-4 0  9996,2 56452  69.9994 222.5900 0003025 268.1652  91.9160 14.98319379 43670,6950.226,96.108,574.193,569.988,0.0
56452.0,STARLINK-5986,PAYLOAD,2024-02-24 12:34:54,14.98326944,0.0003125,69.9991,220.9068,269.5991,90.481,2.6326e-06,-6.2e-07,0.0,0 STARLINK-5986,1 56452U 23064E   24055.52424409 -.00000062  00000-0  26326-5 0  9996,2 56452  69.9991 220.9068 0003125 269.5991  90.4810 14.98326944 44130,6950.202,96.107,574.239,569.895,0.0
56452.0,STARLINK-5986,PAYLOAD,2024-02-24 14:11:02,14.98326985,0.0003128,69.9992,220.7384,269.5749,90.5051,3.6481e-06,-5e-07,0.0,0 STARLINK-5986,1 56452U 23064E   24055.59100417 -.00000050  00000-0  36481-5 0  9993,2 56452  69.9992 220.7384 0003128 269.5749  90.5051 14.98326985 43787,6950.202,96.107,574.241,569.893,0.0
56452.0,STARLINK-5986,PAYLOAD,2024-02-24 20:35:34,14.98331591,0.0003117,69.9992,220.0651,269.6482,90.432,2.4533e-05,2e-06,0.0,0 STARLINK-5986,1 56452U 23064E   24055.85804086  .00000200  00000-0  24533-4 0  9995,2 56452  69.9992 220.0651 0003117 269.6482  90.4320 14.98331591 43822,6950.188,96.107,574.219,569.887,0.0
56452.0,STARLINK-5986,PAYLOAD,2024-02-25 12:36:54,14.98334987,0.0003177,69.9992,218.3817,269.7205,90.359,0.00016164,1.836e-05,0.0,0 STARLINK-5986,1 56452U 23064E   24056.52563398  .00001836  00000-0  16164-3 0  9994,2 56452  69.9992 218.3817 0003177 269.7205  90.3590 14.98334987 44287,6950.177,96.107,574.251,569.834,0.0
56452.0,STARLINK-5986,PAYLOAD,2024-02-25 14:13:02,14.98335171,0.000318,69.9992,218.2134,269.6993,90.3801,0.00016056,1.824e-05,0.0,0 STARLINK-5986,1 56452U 23064E   24056.59239368  .00001824  00000-0  16056-3 0  9995,2 56452  69.9992 218.2134 0003180 269.6993  90.3801 14.98335171 43937,6950.177,96.107,574.252,569.832,0.0
56452.0,STARLINK-5986,PAYLOAD,2024-02-25 20:37:34,14.98339821,0.0003165,69.9992,217.54,269.5365,90.5431,0.00019843,2.276e-05,0.0,0 STARLINK-5986,1 56452U 23064E   24056.85942843  .00002276  00000-0  19843-3 0  9992,2 56452  69.9992 217.5400 0003165 269.5365  90.5431 14.98339821 43971,6950.163,96.106,574.227,569.828,0.0
56452.0,STARLINK-5986,PAYLOAD,2024-02-26 11:02:48,14.98329823,0.0002754,70.0017,216.0282,267.2769,92.8075,1.6615e-05,1.05e-06,0.0,0 STARLINK-5986,1 56452U 23064E   24057.46027951  .00000105  00000-0  16615-4 0  9998,2 56452  70.0017 216.0282 0002754 267.2769  92.8075 14.98329823 44421,6950.193,96.107,573.973,570.144,0.0
56452.0,STARLINK-5986,PAYLOAD,2024-02-26 14:15:04,14.98327642,0.0002785,70.0015,215.6916,267.2325,92.8515,-8.2927e-06,-1.92e-06,0.0,0 STARLINK-5986,1 56452U 23064E   24057.59380143 -.00000192  00000-0 -82927-5 0  9995,2 56452  70.0015 215.6916 0002785 267.2325  92.8515 14.98327642 44088,6950.2,96.107,574.001,570.13,0.0
56452.0,STARLINK-5986,PAYLOAD,2024-02-26 19:03:29,14.98321146,0.0002805,70.0005,215.1859,264.0321,96.0518,-7.6026e-05,-1e-05,0.0,0 STARLINK-5986,1 56452U 23064E   24057.79408789 -.00001000  00000-0 -76026-4 0  9995,2 56452  70.0005 215.1859 0002805 264.0321  96.0518 14.98321146 44477,6950.22,96.108,574.035,570.136,0.0
56452.0,STARLINK-5986,PAYLOAD,2024-02-26 20:39:37,14.9832375,0.0002967,70.0,215.0161,268.6237,91.4582,-0.00010926,-1.396e-05,0.0,0 STARLINK-5986,1 56452U 23064E   24057.86084726 -.00001396  00000-0 -10926-3 0  9998,2 56452  70.0000 215.0161 0002967 268.6237  91.4582 14.98323750 44127,6950.212,96.107,574.139,570.015,0.0
56452.0,STARLINK-5986,PAYLOAD,2024-02-27 11:04:49,14.98333305,0.0003326,69.9988,213.5004,272.9722,87.1056,-0.00011357,-1.448e-05,0.0,0 STARLINK-5986,1 56452U 23064E   24058.46168105 -.00001448  00000-0 -11357-3 0  9996,2 56452  69.9988 213.5004 0003326 272.9722  87.1056 14.98333305 44579,6950.183,96.107,574.359,569.736,0.0
56452.0,STARLINK-5986,PAYLOAD,2024-02-27 14:17:05,14.98335093,0.0003191,69.9993,213.164,270.4099,89.6694,-7.9492e-05,-1.042e-05,0.0,0 STARLINK-5986,1 56452U 23064E   24058.59519853 -.00001042  00000-0 -79492-4 0  9995,2 56452  69.9993 213.1640 0003191 270.4099  89.6694 14.98335093 44231,6950.177,96.107,574.26,569.824,0.0
56452.0,STARLINK-5986,PAYLOAD,2024-02-27 19:05:29,14.98338406,0.0003133,69.9996,212.6597,271.3574,88.7226,-4.083e-05,-5.8e-06,0.0,0 STARLINK-5986,1 56452U 23064E   24058.79547467 -.00000580  00000-0 -40830-4 0  9999,2 56452  69.9996 212.6597 0003133 271.3574  88.7226 14.98338406 44628,6950.167,96.106,574.209,569.854,0.0
56452.0,STARLINK-5986,PAYLOAD,2024-02-27 20:41:36,14.98342505,0.0002575,69.9993,212.4899,256.8601,103.227,-0.00010123,-1.301e-05,0.0,0 STARLINK-5986,1 56452U 23064E   24058.86223274 -.00001301  00000-0 -10123-3 0  9997,2 56452  69.9993 212.4899 0002575 256.8601 103.2270 14.98342505 44274,6950.154,96.106,573.809,570.23,0.0
56452.0,STARLINK-5986,PAYLOAD,2024-02-28 12:42:58,14.98324185,0.0002813,69.9999,210.8065,271.1615,88.9222,0.00010201,1.124e-05,0.0,0 STARLINK-5986,1 56452U 23064E   24059.52983892  .00001124  00000-0  10201-3 0  9998,2 56452  69.9999 210.8065 0002813 271.1615  88.9222 14.98324185 44738,6950.211,96.107,574.031,570.121,0.0
56452.0,STARLINK-5986,PAYLOAD,2024-02-28 14:19:06,14.98324688,0.000289,69.9998,210.6382,272.9736,87.1092,8.9523e-05,9.75e-06,0.0,0 STARLINK-5986,1 56452U 23064E   24059.59659918  .00000975  00000-0  89523-4 0  9991,2 56452  69.9998 210.6382 0002890 272.9736  87.1092 14.98324688 44380,6950.209,96.107,574.083,570.066,0.0
56452.0,STARLINK-5986,PAYLOAD,2024-02-28 19:07:30,14.98323988,0.0002762,70.0,210.1344,264.6162,95.4682,7.6496e-05,8.2e-06,0.0,0 STARLINK-5986,1 56452U 23064E   24059.79688013  .00000820  00000-0  76496-4 0  9995,2 56452  70.0000 210.1344 0002762 264.6162  95.4682 14.98323988 44412,6950.211,96.107,573.996,570.157,0.0
56452.0,STARLINK-5986,PAYLOAD,2024-02-29 14:21:07,14.98331192,0.0002966,70.0,208.113,270.6961,89.3859,-3.6909e-05,-5.33e-06,0.0,0 STARLINK-5986,1 56452U 23064E   24060.59799952 -.00000533  00000-0 -36909-4 0  9998,2 56452  70.0000 208.1130 0002966 270.6961  89.3859 14.98331192 44539,6950.189,96.107,574.116,569.993,0.0
56452.0,STARLINK-5986,PAYLOAD,2024-02-29 17:33:23,14.98330031,0.0003005,70.0,207.7778,268.0738,92.0077,-1.9673e-05,-3.28e-06,0.0,0 STARLINK-5986,1 56452U 23064E   24060.73151931 -.00000328  00000-0 -19673-4 0  9994,2 56452  70.0000 207.7778 0003005 268.0738  92.0077 14.98330031 44916,6950.193,96.107,574.146,569.969,0.0
56452.0,STARLINK-5986,PAYLOAD,2024-03-01 14:23:07,14.98330352,0.0003197,69.9998,205.5895,271.5732,88.5061,3.9469e-05,3.78e-06,0.0,0 STARLINK-5986,1 56452U 23064E   24061.59939656  .00000378  00000-0  39469-4 0  9995,2 56452  69.9998 205.5895 0003197 271.5732  88.5061 14.98330352 44683,6950.192,96.107,574.279,569.835,0.0
56452.0,STARLINK-5986,PAYLOAD,2024-03-01 19:11:31,14.98335904,0.0003219,69.9997,205.0842,270.9323,89.1467,5.4852e-05,5.62e-06,0.0,0 STARLINK-5986,1 56452U 23064E   24061.79967196  .00000562  00000-0  54852-4 0  9995,2 56452  69.9997 205.0842 0003219 270.9323  89.1467 14.98335904 45072,6950.175,96.107,574.277,569.802,0.0
56452.0,STARLINK-5986,PAYLOAD,2024-03-02 11:12:53,14.98325457,0.000308,70.0005,203.4022,271.8767,88.2039,-4.9045e-05,-6.78e-06,0.0,0 STARLINK-5986,1 56452U 23064E   24062.46728206 -.00000678  00000-0 -49045-4 0  9995,2 56452  70.0005 203.4022 0003080 271.8767  88.2039 14.98325457 45173,6950.207,96.107,574.213,569.931,0.0
56452.0,STARLINK-5986,PAYLOAD,2024-03-02 14:25:09,14.98326026,0.0002982,70.0006,203.0656,270.7954,89.2863,-4.1644e-05,-5.9e-06,0.0,0 STARLINK-5986,1 56452U 23064E   24062.60080185 -.00000590  00000-0 -41644-4 0  9998,2 56452  70.0006 203.0656 0002982 270.7954  89.2863 14.98326026 44830,6950.205,96.107,574.143,569.998,0.0
56452.0,STARLINK-5986,PAYLOAD,2024-03-02 19:13:33,14.98327493,0.0003042,70.0006,202.5609,271.9406,88.1404,-2.2917e-05,-3.66e-06,0.0,0 STARLINK-5986,1 56452U 23064E   24062.80108071 -.00000366  00000-0 -22917-4 0  9998,2 56452  70.0006 202.5609 0003042 271.9406  88.1404 14.98327493 44866,6950.201,96.107,574.18,569.951,0.0
56452.0,STARLINK-5986,PAYLOAD,2024-03-03 11:14:53,14.98327752,0.0003129,70.0005,200.8771,270.0655,90.0146,7.8216e-06,0.0,0.0,0 STARLINK-5986,1 56452U 23064E   24063.46867967  .00000000  00000-0  78216-5 0  9994,2 56452  70.0005 200.8771 0003129 270.0655  90.0146 14.98327752 45323,6950.2,96.107,574.24,569.89,0.0
56452.0,STARLINK-5986,PAYLOAD,2024-03-03 12:51:02,14.98314092,0.0003054,70.0005,200.7086,268.7802,91.3007,0.00023967,2.767e-05,0.0,0 STARLINK-5986,1 56452U 23064E   24063.53544325  .00002767  00000-0  23967-3 0  9995,2 56452  70.0005 200.7086 0003054 268.7802  91.3007 14.98314092 44979,6950.242,96.108,574.23,569.984,0.0
56452.0,STARLINK-5986,PAYLOAD,2024-03-03 19:15:34,14.9829344,0.0002669,70.0006,200.0354,271.3193,88.766,0.00071849,8.482e-05,0.0,0 STARLINK-5986,1 56452U 23064E   24063.80248569  .00008482  00000-0  71849-3 0  9998,2 56452  70.0006 200.0354 0002669 271.3193  88.7660 14.98293440 45019,6950.306,96.109,574.026,570.316,0.0
56452.0,STARLINK-5986,PAYLOAD,2024-03-04 11:16:53,14.98336622,0.0003004,69.9999,198.3511,271.9455,88.136,0.00015719,1.783e-05,0.0,0 STARLINK-5986,1 56452U 23064E   24064.47006655  .00001783  00000-0  15719-3 0  9991,2 56452  69.9999 198.3511 0003004 271.9455  88.1360 14.98336622 45473,6950.172,96.107,574.125,569.95,0.0
